BEIDOU 7 (C07)          
1 37256U 10068A   20280.44146747 -.00000190  00000-0  00000-0 0  9998
2 37256  51.2980 297.0190 0082643 214.7876 142.2678  1.00277519 35949
BEIDOU 8 (C08)          
1 37384U 11013A   20280.67474905 -.00000169  00000-0  10000-3 0  9996
2 37384  59.4284  60.4670 0051879 201.3722 115.7425  1.00274894 34826
BEIDOU 9 (C09)          
1 37763U 11038A   20280.97266042 -.00000077  00000-0  10000-3 0  9996
2 37763  54.4492 184.3503 0073075 224.6701  53.2466  1.00271130 33797
BEIDOU 10 (C10)         
1 37948U 11073A   20278.64029244 -.00000137  00000-0  10000-3 0  9999
2 37948  51.3933 296.6408 0071986 215.7173 187.9566  1.00271159 32530
BEIDOU 11 (C05)         
1 38091U 12008A   20281.11733591  .00000060  00000-0  00000+0 0  9990
2 38091   1.7111  69.3434 0002468 210.6865 197.1517  1.00275231 31636
BEIDOU 12 (C11)         
1 38250U 12018A   20280.66227054 -.00000088  00000-0  10000-3 0  9995
2 38250  56.7473  13.9983 0022897 238.9041 179.3314  1.86234289 57564
BEIDOU 13 (C12)         
1 38251U 12018B   20281.13204411 -.00000087  00000-0  00000+0 0  9995
2 38251  56.6733  13.3469 0014144 238.7512 179.3944  1.86232613 57572
BEIDOU 15 (C14)         
1 38775U 12050B   20281.02059126  .00000032  00000-0  00000+0 0  9990
2 38775  55.0992 132.5321 0013757 324.3713 215.8775  1.86232364 54947
BEIDOU 16 (C02)         
1 38953U 12059A   20280.93174383 -.00000172  00000-0  00000-0 0  9996
2 38953   1.3633  84.2907 0006163 257.9462  93.2846  1.00270604 29190
BEIDOU 17 (C31)         
1 40549U 15019A   20280.42058551 -.00000157  00000-0  00000-0 0  9994
2 40549  52.8903 319.9246 0040661 192.3571 110.7705  1.00262738 20226
BEIDOU 18 (C57)         
1 40748U 15037A   20280.60083124 -.00000090  00000-0  00000-0 0  9995
2 40748  55.9390  12.6036 0001135  21.5718 310.2805  1.86232076 35381
BEIDOU 19 (C58)         
1 40749U 15037B   20280.48058986 -.00000090  00000-0  00000+0 0  9999
2 40749  55.9431  12.5953 0003398 284.4552 103.8541  1.86232139 35387
BEIDOU 20 (C18)         
1 40938U 15053A   20280.47840862 -.00000104  00000-0  00000+0 0  9994
2 40938  52.4528 282.9603 0048499 192.4657 166.1738  1.00293236 18502
BEIDOU IGSO-6 (C13)     
1 41434U 16021A   20280.85813163 -.00000131  00000-0  00000-0 0  9999
2 41434  57.1990  59.3278 0041616 203.5189 157.5602  1.00277647 16646
BEIDOU-2 G7 (C03)       
1 41586U 16037A   20280.91690507 -.00000351  00000-0  00000-0 0  9990
2 41586   1.7174  67.1691 0007547   1.5409  27.9508  1.00275208 15943
BEIDOU-3 M1 (C19)       
1 43001U 17069A   20280.50723633  .00000032  00000-0  00000+0 0  9996
2 43001  55.2526 132.4664 0008193 294.5923  58.1408  1.86231893 19867
BEIDOU-3 M2 (C20)       
1 43002U 17069B   20281.25352550  .00000033  00000-0  00000+0 0  9997
2 43002  55.2533 132.4768 0007357 322.2182 214.6160  1.86231509 19877
BEIDOU-3 M3 (C27)       
1 43107U 18003A   20280.62480499 -.00000090  00000-0  00000+0 0  9990
2 43107  55.3763  13.7980 0003617  53.3523 227.8228  1.86232532 18622
BEIDOU-3 M4 (C28)       
1 43108U 18003B   20281.09632536 -.00000089  00000-0  00000+0 0  9992
2 43108  55.3695  13.7735 0003922 224.9057  57.5616  1.86232597 18633
BEIDOU-3 M5 (C21)       
1 43207U 18018A   20280.04875770  .00000031  00000-0  00000-0 0  9998
2 43207  55.2120 132.6170 0005540 354.1631   5.9239  1.86231903 18000
BEIDOU-3 M6 (C22)       
1 43208U 18018B   20280.65247847  .00000032  00000-0  00000+0 0  9994
2 43208  55.2116 132.6018 0006098 311.0564  48.9822  1.86231814 18010
BEIDOU-3 M7 (C29)       
1 43245U 18029A   20280.76058622 -.00000091  00000-0  00000-0 0  9997
2 43245  55.3195  11.5983 0000985 194.0572  88.2144  1.86232638 17166
BEIDOU-3 M8 (C30)       
1 43246U 18029B   20280.68962017 -.00000091  00000-0  10000-3 0  9995
2 43246  55.3156  11.6319 0002937 336.1234 304.5363  1.86232963 17158
BEIDOU IGSO-7 (C16)     
1 43539U 18057A   20280.90693785 -.00000124  00000-0  00000+0 0  9991
2 43539  55.0481 181.2453 0031949 216.5296  58.1557  1.00291624  8307
BEIDOU-3 M9 (C23)       
1 43581U 18062A   20281.16465571  .00000033  00000-0  00000+0 0  9991
2 43581  54.5162 253.2955 0006293 268.5986 180.1277  1.86231830 14914
BEIDOU-3 M10 (C24)      
1 43582U 18062B   20280.64053179  .00000029  00000-0  00000+0 0  9996
2 43582  54.5157 253.3029 0005482 321.8127 226.5473  1.86232212 14908
BEIDOU-3 M11 (C25)      
1 43602U 18067A   20280.62395549  .00000030  00000-0  00000+0 0  9994
2 43602  54.5880 251.8650 0006657 342.4539 237.5625  1.86231543 14398
BEIDOU-3 M12 (C26)      
1 43603U 18067B   20280.69632825  .00000030  00000-0  00000+0 0  9993
2 43603  54.5855 251.8302 0004452 324.4437 214.6093  1.86231473 14413
BEIDOU-3 M13 (C32)      
1 43622U 18072A   20281.19563455  .00000033  00000-0  00000+0 0  9991
2 43622  55.1759 132.1553 0004355 291.8954 252.3660  1.86232055 13938
BEIDOU-3 M14 (C33)      
1 43623U 18072B   20280.70633001  .00000032  00000-0  00000-0 0  9993
2 43623  55.1776 132.1646 0004197 332.9931 333.4397  1.86231994 13925
BEIDOU-3 M15 (C34)      
1 43647U 18078A   20280.82688922 -.00000090  00000-0  10000-3 0  9999
2 43647  55.2115  11.8072 0005319 342.5619 299.8369  1.86233194 13447
BEIDOU-3 M16 (C35)      
1 43648U 18078B   20280.52480693 -.00000091  00000-0  10000-3 0  9993
2 43648  55.2074  11.8254 0003066 356.9965 351.7687  1.86232671 13444
BEIDOU-3 G1 (C59)       
1 43683U 18085A   20280.91817631 -.00000276  00000-0  00000-0 0  9990
2 43683   1.5343 249.9337 0004616 349.3210 247.4054  1.00272371  7217
BEIDOU-3 M17 (C36)      
1 43706U 18093A   20280.44102225  .00000028  00000-0  00000-0 0  9993
2 43706  54.5968 253.1601 0012011 266.2743 282.2558  1.86231768 12795
BEIDOU-3 M18 (C37)      
1 43707U 18093B   20281.11263986  .00000033  00000-0  00000+0 0  9996
2 43707  54.5963 253.1276 0010497 285.8314  83.6062  1.86232007 12819
BEIDOU-3 IGSO-1 (C38)   
1 44204U 19023A   20280.75183240 -.00000186  00000-0  10000-3 0  9991
2 44204  55.6584  59.6898 0018801 179.8292 159.3264  1.00260495  5507
BEIDOU-2 G8             
1 44231U 19027A   20280.91904867 -.00000244  00000-0  00000-0 0  9990
2 44231   0.7410 301.4109 0008246 271.3051 278.7601  1.00272292  5231
BEIDOU-3 IGSO-2 (C39)   
1 44337U 19035A   20280.55613759 -.00000105  00000-0  00000-0 0  9999
2 44337  55.0734 177.2952 0014115 182.8464 322.0586  1.00257611  4840
BEIDOU-3 M23 (C45)      
1 44542U 19061A   20280.96900426  .00000033  00000-0  10000-3 0  9994
2 44542  54.8204 253.1625 0009563 312.2369 274.7026  1.86231644  7063
BEIDOU-3 M24 (C46)      
1 44543U 19061B   20280.51069656  .00000029  00000-0  10000-3 0  9992
2 44543  54.8193 253.1487 0007212 299.5612 250.6346  1.86232008  7067
BEIDOU-3 IGSO-3         
1 44709U 19073A   20280.58441321 -.00000137  00000-0  10000-3 0  9990
2 44709  58.2283 302.7702 0022880 196.9784 191.2786  1.00295461  3600
BEIDOU-3 M21            
1 44793U 19078A   20281.06474535 -.00000090  00000-0  10000-3 0  9993
2 44793  55.0595  11.8958 0005162 349.1252  47.4961  1.86232883  5939
BEIDOU-3 M22            
1 44794U 19078B   20281.20797539 -.00000090  00000-0  10000-3 0  9992
2 44794  55.0336  11.8947 0003015 342.9471  60.2023  1.86233352  5934
BEIDOU-3 M19            
1 44864U 19090A   20280.77563308  .00000032  00000-0  00000-0 0  9991
2 44864  55.1120 132.4136 0013932 264.3581  43.5913  1.86231969  5509
BEIDOU-3 M20            
1 44865U 19090B   20280.64022523  .00000031  00000-0  10000-3 0  9990
2 44865  55.1142 132.4492 0012969 281.7415  25.3552  1.86231895  5489
BEIDOU-3 G2             
1 45344U 20017A   20280.90622498 -.00000140  00000-0  00000-0 0  9998
2 45344   2.7918 330.3269 0002053 213.9442 238.0204  1.00272902  2419
